ISS (ZARYA)             
1 25544U 98067A   25333.83453771  .00008010  00000+0  15237-3 0  9993
2 25544  51.6312 206.3646 0003723 184.1118 175.9840 15.49193835540850
CSS (TIANHE)            
1 48274U 21035A   25333.58031323  .00014306  00000+0  18629-3 0  9999
2 48274  41.4664  96.5478 0010593 293.9790  65.9939 15.58397325261972
ISS (NAUKA)             
1 49044U 21066A   25333.12495806  .00008872  00000+0  16795-3 0  9992
2 49044  51.6312 209.8765 0003736 181.3383 178.7596 15.49180644230442
FREGAT DEB              
1 49271U 11037PF  25333.13056905  .00007028  00000+0  15567-1 0  9991
2 49271  51.6189 239.6738 0870512 194.3628 163.0950 12.34304223200256
CSS (WENTIAN)           
1 53239U 22085A   25333.25988665  .00015582  00000+0  20255-3 0  9991
2 53239  41.4663  98.4914 0010669 292.2705  67.7001 15.58389811173845
CSS (MENGTIAN)          
1 54216U 22143A   25333.25988665  .00015582  00000+0  20255-3 0  9992
2 54216  41.4663  98.4914 0010669 292.2705  67.7001 15.58389811158642
SOYUZ-MS 27             
1 63520U 25072A   25333.12495806  .00008872  00000+0  16795-3 0  9998
2 63520  51.6312 209.8765 0003736 181.3383 178.7596 15.49180644 20208
SHENZHOU-20 (SZ-20)     
1 63632U 25082A   25333.25988665  .00015582  00000+0  20255-3 0  9999
2 63632  41.4663  98.4914 0010669 292.2705  67.7001 15.58389811255305
PROGRESS-MS 31          
1 64751U 25146A   25333.12495806  .00008872  00000+0  16795-3 0  9997
2 64751  51.6312 209.8765 0003736 181.3383 178.7596 15.49180644  6759
TIANZHOU-9              
1 64786U 25149A   25333.25988665  .00015582  00000+0  20255-3 0  9994
2 64786  41.4663  98.4914 0010669 292.2705  67.7001 15.58389811255306
CREW DRAGON 11          
1 65077U 25166A   25333.12495806  .00008872  00000+0  16795-3 0  9991
2 65077  51.6312 209.8765 0003736 181.3383 178.7596 15.49180644  2140
DRAGON CRS-33           
1 65304U 25186A   25333.12495806  .00008872  00000+0  16795-3 0  9996
2 65304  51.6312 209.8765 0003736 181.3383 178.7596 15.49180644   118
