CCSDS_OMM_VERS = 2.0
CREATION_DATE  = 
ORIGINATOR     = 

OBJECT_NAME    = ISS (ZARYA)
OBJECT_ID      = 1998-067A
CENTER_NAME    = EARTH
REF_FRAME      = TEME
TIME_SYSTEM    = UTC
MEAN_ELEMENT_THEORY = SGP/SGP4

EPOCH          = 2025-11-29T20:01:44.058144
MEAN_MOTION    = 15.49193835
ECCENTRICITY   = .0003723
INCLINATION    = 51.6312
RA_OF_ASC_NODE = 206.3646
ARG_OF_PERICENTER = 184.1118
MEAN_ANOMALY   = 175.9840

EPHEMERIS_TYPE = 0
CLASSIFICATION_TYPE = U
NORAD_CAT_ID   = 25544
ELEMENT_SET_NO = 999
REV_AT_EPOCH   = 54085
BSTAR          = .15237E-3
MEAN_MOTION_DOT = .801E-4
MEAN_MOTION_DDOT = 0

CCSDS_OMM_VERS = 2.0
CREATION_DATE  = 
ORIGINATOR     = 

OBJECT_NAME    = CSS (TIANHE)
OBJECT_ID      = 2021-035A
CENTER_NAME    = EARTH
REF_FRAME      = TEME
TIME_SYSTEM    = UTC
MEAN_ELEMENT_THEORY = SGP/SGP4

EPOCH          = 2025-11-29T13:55:39.063072
MEAN_MOTION    = 15.58397325
ECCENTRICITY   = .0010593
INCLINATION    = 41.4664
RA_OF_ASC_NODE = 96.5478
ARG_OF_PERICENTER = 293.9790
MEAN_ANOMALY   = 65.9939

EPHEMERIS_TYPE = 0
CLASSIFICATION_TYPE = U
NORAD_CAT_ID   = 48274
ELEMENT_SET_NO = 999
REV_AT_EPOCH   = 26197
BSTAR          = .18629E-3
MEAN_MOTION_DOT = .14306E-3
MEAN_MOTION_DDOT = 0

CCSDS_OMM_VERS = 2.0
CREATION_DATE  = 
ORIGINATOR     = 

OBJECT_NAME    = ISS (NAUKA)
OBJECT_ID      = 2021-066A
CENTER_NAME    = EARTH
REF_FRAME      = TEME
TIME_SYSTEM    = UTC
MEAN_ELEMENT_THEORY = SGP/SGP4

EPOCH          = 2025-11-29T02:59:56.376384
MEAN_MOTION    = 15.49180644
ECCENTRICITY   = .00037368
INCLINATION    = 51.6312
RA_OF_ASC_NODE = 209.8765
ARG_OF_PERICENTER = 181.3383
MEAN_ANOMALY   = 178.7596

EPHEMERIS_TYPE = 0
CLASSIFICATION_TYPE = U
NORAD_CAT_ID   = 49044
ELEMENT_SET_NO = 999
REV_AT_EPOCH   = 23044
BSTAR          = .1679519E-3
MEAN_MOTION_DOT = .8872E-4
MEAN_MOTION_DDOT = 0

CCSDS_OMM_VERS = 2.0
CREATION_DATE  = 
ORIGINATOR     = 

OBJECT_NAME    = FREGAT DEB
OBJECT_ID      = 2011-037PF
CENTER_NAME    = EARTH
REF_FRAME      = TEME
TIME_SYSTEM    = UTC
MEAN_ELEMENT_THEORY = SGP/SGP4

EPOCH          = 2025-11-29T03:08:01.165920
MEAN_MOTION    = 12.34304223
ECCENTRICITY   = .08705127
INCLINATION    = 51.6189
RA_OF_ASC_NODE = 239.6738
ARG_OF_PERICENTER = 194.3628
MEAN_ANOMALY   = 163.0950

EPHEMERIS_TYPE = 0
CLASSIFICATION_TYPE = U
NORAD_CAT_ID   = 49271
ELEMENT_SET_NO = 999
REV_AT_EPOCH   = 20025
BSTAR          = .15567294E-1
MEAN_MOTION_DOT = .7028E-4
MEAN_MOTION_DDOT = 0

CCSDS_OMM_VERS = 2.0
CREATION_DATE  = 
ORIGINATOR     = 

OBJECT_NAME    = CSS (WENTIAN)
OBJECT_ID      = 2022-085A
CENTER_NAME    = EARTH
REF_FRAME      = TEME
TIME_SYSTEM    = UTC
MEAN_ELEMENT_THEORY = SGP/SGP4

EPOCH          = 2025-11-29T06:14:14.206560
MEAN_MOTION    = 15.58389811
ECCENTRICITY   = .00106693
INCLINATION    = 41.4663
RA_OF_ASC_NODE = 98.4914
ARG_OF_PERICENTER = 292.2705
MEAN_ANOMALY   = 67.7001

EPHEMERIS_TYPE = 0
CLASSIFICATION_TYPE = U
NORAD_CAT_ID   = 53239
ELEMENT_SET_NO = 999
REV_AT_EPOCH   = 17384
BSTAR          = .20254705E-3
MEAN_MOTION_DOT = .15582E-3
MEAN_MOTION_DDOT = 0

CCSDS_OMM_VERS = 2.0
CREATION_DATE  = 
ORIGINATOR     = 

OBJECT_NAME    = CSS (MENGTIAN)
OBJECT_ID      = 2022-143A
CENTER_NAME    = EARTH
REF_FRAME      = TEME
TIME_SYSTEM    = UTC
MEAN_ELEMENT_THEORY = SGP/SGP4

EPOCH          = 2025-11-29T06:14:14.206560
MEAN_MOTION    = 15.58389811
ECCENTRICITY   = .00106693
INCLINATION    = 41.4663
RA_OF_ASC_NODE = 98.4914
ARG_OF_PERICENTER = 292.2705
MEAN_ANOMALY   = 67.7001

EPHEMERIS_TYPE = 0
CLASSIFICATION_TYPE = U
NORAD_CAT_ID   = 54216
ELEMENT_SET_NO = 999
REV_AT_EPOCH   = 15864
BSTAR          = .20254705E-3
MEAN_MOTION_DOT = .15582E-3
MEAN_MOTION_DDOT = 0

CCSDS_OMM_VERS = 2.0
CREATION_DATE  = 
ORIGINATOR     = 

OBJECT_NAME    = SOYUZ-MS 27
OBJECT_ID      = 2025-072A
CENTER_NAME    = EARTH
REF_FRAME      = TEME
TIME_SYSTEM    = UTC
MEAN_ELEMENT_THEORY = SGP/SGP4

EPOCH          = 2025-11-29T02:59:56.376384
MEAN_MOTION    = 15.49180644
ECCENTRICITY   = .00037368
INCLINATION    = 51.6312
RA_OF_ASC_NODE = 209.8765
ARG_OF_PERICENTER = 181.3383
MEAN_ANOMALY   = 178.7596

EPHEMERIS_TYPE = 0
CLASSIFICATION_TYPE = U
NORAD_CAT_ID   = 63520
ELEMENT_SET_NO = 999
REV_AT_EPOCH   = 2020
BSTAR          = .1679519E-3
MEAN_MOTION_DOT = .8872E-4
MEAN_MOTION_DDOT = 0

CCSDS_OMM_VERS = 2.0
CREATION_DATE  = 
ORIGINATOR     = 

OBJECT_NAME    = SHENZHOU-20 (SZ-20)
OBJECT_ID      = 2025-082A
CENTER_NAME    = EARTH
REF_FRAME      = TEME
TIME_SYSTEM    = UTC
MEAN_ELEMENT_THEORY = SGP/SGP4

EPOCH          = 2025-11-29T06:14:14.206560
MEAN_MOTION    = 15.58389811
ECCENTRICITY   = .00106693
INCLINATION    = 41.4663
RA_OF_ASC_NODE = 98.4914
ARG_OF_PERICENTER = 292.2705
MEAN_ANOMALY   = 67.7001

EPHEMERIS_TYPE = 0
CLASSIFICATION_TYPE = U
NORAD_CAT_ID   = 63632
ELEMENT_SET_NO = 999
REV_AT_EPOCH   = 25530
BSTAR          = .20254705E-3
MEAN_MOTION_DOT = .15582E-3
MEAN_MOTION_DDOT = 0

CCSDS_OMM_VERS = 2.0
CREATION_DATE  = 
ORIGINATOR     = 

OBJECT_NAME    = PROGRESS-MS 31
OBJECT_ID      = 2025-146A
CENTER_NAME    = EARTH
REF_FRAME      = TEME
TIME_SYSTEM    = UTC
MEAN_ELEMENT_THEORY = SGP/SGP4

EPOCH          = 2025-11-29T02:59:56.376384
MEAN_MOTION    = 15.49180644
ECCENTRICITY   = .00037368
INCLINATION    = 51.6312
RA_OF_ASC_NODE = 209.8765
ARG_OF_PERICENTER = 181.3383
MEAN_ANOMALY   = 178.7596

EPHEMERIS_TYPE = 0
CLASSIFICATION_TYPE = U
NORAD_CAT_ID   = 64751
ELEMENT_SET_NO = 999
REV_AT_EPOCH   = 675
BSTAR          = .1679519E-3
MEAN_MOTION_DOT = .8872E-4
MEAN_MOTION_DDOT = 0

CCSDS_OMM_VERS = 2.0
CREATION_DATE  = 
ORIGINATOR     = 

OBJECT_NAME    = TIANZHOU-9
OBJECT_ID      = 2025-149A
CENTER_NAME    = EARTH
REF_FRAME      = TEME
TIME_SYSTEM    = UTC
MEAN_ELEMENT_THEORY = SGP/SGP4

EPOCH          = 2025-11-29T06:14:14.206560
MEAN_MOTION    = 15.58389811
ECCENTRICITY   = .00106693
INCLINATION    = 41.4663
RA_OF_ASC_NODE = 98.4914
ARG_OF_PERICENTER = 292.2705
MEAN_ANOMALY   = 67.7001

EPHEMERIS_TYPE = 0
CLASSIFICATION_TYPE = U
NORAD_CAT_ID   = 64786
ELEMENT_SET_NO = 999
REV_AT_EPOCH   = 25530
BSTAR          = .20254705E-3
MEAN_MOTION_DOT = .15582E-3
MEAN_MOTION_DDOT = 0

CCSDS_OMM_VERS = 2.0
CREATION_DATE  = 
ORIGINATOR     = 

OBJECT_NAME    = CREW DRAGON 11
OBJECT_ID      = 2025-166A
CENTER_NAME    = EARTH
REF_FRAME      = TEME
TIME_SYSTEM    = UTC
MEAN_ELEMENT_THEORY = SGP/SGP4

EPOCH          = 2025-11-29T02:59:56.376384
MEAN_MOTION    = 15.49180644
ECCENTRICITY   = .00037368
INCLINATION    = 51.6312
RA_OF_ASC_NODE = 209.8765
ARG_OF_PERICENTER = 181.3383
MEAN_ANOMALY   = 178.7596

EPHEMERIS_TYPE = 0
CLASSIFICATION_TYPE = U
NORAD_CAT_ID   = 65077
ELEMENT_SET_NO = 999
REV_AT_EPOCH   = 214
BSTAR          = .1679519E-3
MEAN_MOTION_DOT = .8872E-4
MEAN_MOTION_DDOT = 0

CCSDS_OMM_VERS = 2.0
CREATION_DATE  = 
ORIGINATOR     = 

OBJECT_NAME    = DRAGON CRS-33
OBJECT_ID      = 2025-186A
CENTER_NAME    = EARTH
REF_FRAME      = TEME
TIME_SYSTEM    = UTC
MEAN_ELEMENT_THEORY = SGP/SGP4

EPOCH          = 2025-11-29T02:59:56.376384
MEAN_MOTION    = 15.49180644
ECCENTRICITY   = .00037368
INCLINATION    = 51.6312
RA_OF_ASC_NODE = 209.8765
ARG_OF_PERICENTER = 181.3383
MEAN_ANOMALY   = 178.7596

EPHEMERIS_TYPE = 0
CLASSIFICATION_TYPE = U
NORAD_CAT_ID   = 65304
ELEMENT_SET_NO = 999
REV_AT_EPOCH   = 11
BSTAR          = .1679519E-3
MEAN_MOTION_DOT = .8872E-4
MEAN_MOTION_DDOT = 0

